OBJECT_NAME,OBJECT_ID,EPOCH,MEAN_MOTION,ECCENTRICITY,INCLINATION,RA_OF_ASC_NODE,ARG_OF_PERICENTER,MEAN_ANOMALY,EPHEMERIS_TYPE,CLASSIFICATION_TYPE,NORAD_CAT_ID,ELEMENT_SET_NO,REV_AT_EPOCH,BSTAR,MEAN_MOTION_DOT,MEAN_MOTION_DDOT
CUBEBUG-2 (LO-74),2013-066AA,2026-06-24T10:21:22.181472,14.93815416,.00577542,97.8904,124.4401,5.2541,354.9272,0,U,39440,999,67807,.30669239E-3,.33E-4,0
FUNCUBE-1 (AO-73),2013-066AE,2026-06-24T16:18:41.741856,15.09563414,.00364286,97.8270,147.2816,175.4480,184.7087,0,U,39444,999,68079,.40220243E-3,.649E-4,0
UWE-3,2013-066AG,2026-06-24T10:25:21.919008,14.97078120,.00468419,97.8706,131.5569,296.6681,62.9747,0,U,39446,999,67866,.34049594E-3,.3951E-4,0
UNISAT-6,2014-033C,2026-06-24T23:59:27.862656,14.88280483,.00458359,97.7883,328.5744,44.1963,316.2900,0,U,40012,999,64732,.25552931E-3,.2351E-4,0
DUCHIFAT-1,2014-033M,2026-06-24T10:30:03.579552,15.65947368,.00018424,98.0461,235.6243,104.9324,255.2139,0,U,40021,999,65688,.10238096E-2,.105271E-2,0
QB50P1,2014-033R,2026-06-24T23:49:26.124672,15.18365172,.00086134,98.0964,187.6859,187.2704,172.8404,0,U,40025,999,65421,.43065203E-3,.8784E-4,0
LILACSAT-2,2015-049K,2026-06-25T06:28:01.516800,15.51691507,.00062288,97.4642,213.4188,208.7181,151.3729,0,U,40908,999,59700,.36606317E-3,.21726E-3,0
FOX-1A (AO-85),2015-058D,2026-06-24T17:32:12.626016,14.90997570,.01308801,64.7739,255.5404,53.6729,307.6381,0,U,40967,999,11469,.16308393E-3,.1723E-4,0
CAS-2T & KS-1Q,2016-066G,2026-06-25T04:55:55.801344,14.44718564,.03428891,98.3820,251.8502,105.2370,258.6999,0,U,41847,999,50595,.22533001E-3,.1561E-4,0
RADFXSAT (FOX-1B),2017-073E,2026-06-25T03:29:23.109504,15.12819327,.01486828,97.4699,43.1975,301.5265,57.1515,0,U,43017,999,46659,.34436319E-3,.7866E-4,0
DIWATA-2B,2018-084H,2026-06-25T07:20:12.605280,15.00483339,.00129766,98.1206,12.8675,144.6111,215.5975,0,U,43678,999,41743,.15240869E-3,.1856E-4,0
ES'HAIL 2,2018-090A,2026-06-25T05:14:38.786208,1.00273854,.00021632,0.0180,336.3405,153.1552,248.3240,0,U,43700,999,2775,0,.154E-5,0
FOX-1CLIFF (AO-95),2018-099N,2026-06-25T03:20:11.417856,15.26862763,.00072275,97.4384,236.3562,326.7898,33.2886,0,U,43770,999,41443,.49534587E-3,.13017E-3,0
ITASAT,2018-099AE,2026-06-25T02:58:11.933472,15.19145163,.00112973,97.4030,227.4770,331.0852,28.9756,0,U,43786,999,41411,.34609909E-3,.7218E-4,0
JY1SAT (JO-97),2018-099AX,2026-06-25T02:53:27.558240,15.33882017,.00049226,97.4134,238.9829,226.5613,133.5221,0,U,43803,999,41484,.63897777E-3,.20902E-3,0
UWE-4,2018-111E,2026-06-24T08:00:08.237952,15.46518147,.00044221,97.5840,104.0552,306.3927,53.6913,0,U,43880,999,41188,.61651018E-3,.30606E-3,0
TIANYAN 01,2019-093C,2026-06-25T06:09:52.634016,14.86529062,.00149922,97.7531,248.2926,62.9164,297.3580,0,U,44881,999,35261,.27747484E-4,.193E-5,0
RS-44 & BREEZE-KM R/B,2019-096E,2026-06-24T23:30:44.353728,12.79748967,.0218424,82.5224,334.5259,126.0184,236.1380,0,U,44909,999,30334,.72192361E-4,.31E-6,0
SALSAT,2020-068K,2026-06-25T06:08:43.541664,15.29904088,.00078059,97.8852,179.8123,273.7441,86.2905,0,U,46495,999,31659,.29756227E-3,.854E-4,0
XW-3 (CAS-9),2021-131B,2026-06-25T07:34:17.203296,14.41363913,.00053596,98.4979,268.6611,77.8191,282.3598,0,U,50466,999,23628,.14778768E-3,.434E-5,0
GREENCUBE (IO-117),2022-080E,2026-06-23T17:18:16.788960,6.42583215,.00089266,70.1445,295.9726,288.1418,71.8270,0,U,53109,999,9248,0,-.3E-7,0
UMKA 1 (RS40S),2023-091G,2026-06-25T06:03:29.591712,15.20902926,.00143292,97.5051,234.9186,92.7767,267.5108,0,U,57172,999,16523,.33949384E-3,.7458E-4,0
CUBESX-HSE 3 (RS42S),2023-091N,2026-06-25T06:38:30.818112,15.31401475,.00116469,97.5093,241.9664,69.5906,290.6585,0,U,57178,999,16566,.55036054E-3,.16663E-3,0
MONITOR-3 (RS58S),2023-091Q,2026-06-25T06:05:17.933856,15.27991358,.00128274,97.5086,239.7591,75.8601,284.4063,0,U,57180,999,16552,.51044599E-3,.13908E-3,0
MONITOR-4 (RS57S),2023-091S,2026-06-25T07:08:47.436000,15.28077575,.00128513,97.5080,239.7751,76.0047,284.2621,0,U,57182,999,16553,.48001031E-3,.13107E-3,0
MONITOR-2 (RS39S),2023-091U,2026-06-25T06:48:43.509024,15.18979315,.00127751,97.5074,234.5144,86.6482,273.6214,0,U,57184,999,16518,.26731706E-3,.5533E-4,0
SVYATOBOR 1 (RS60S),2023-091X,2026-06-25T06:03:22.380768,15.26740900,.00106067,97.5091,240.1141,70.1244,290.1137,0,U,57187,999,16554,.42798221E-3,.11202E-3,0
VIZARD-METEO (RS38S),2023-091Z,2026-06-25T05:24:03.989952,15.36259666,.00076985,97.5094,245.8719,53.1711,307.0237,0,U,57189,999,16592,.58801302E-3,.2075E-3,0
POLYTECH-UNIVERSE 3 (RS46S),2023-091AB,2026-06-25T07:26:20.512032,15.19184060,.00170817,97.5048,234.0446,101.1195,259.1961,0,U,57191,999,16518,.30425503E-3,.6356E-4,0
UTMN 2 (RS27S),2023-091AP,2026-06-25T05:23:27.115296,15.32230916,.00087604,97.5089,243.5574,59.6938,300.5169,0,U,57203,999,16577,.49598676E-3,.15386E-3,0
